STARLINK-36471          
1 67324U 26002V   26009.25001157 -.00915224  29202-3 -13482-2 0  9993
2 67324  43.0007 311.7640 0001997 270.7850 154.7769 16.04075400  1866
STARLINK-36473          
1 67325U 26002W   26009.25001157 -.00914154  29099-3 -13565-2 0  9991
2 67325  43.0007 311.7670 0001970 267.9974 156.4853 16.03953786  2029
STARLINK-36430          
1 67326U 26002X   26009.25001157 -.00915185  29282-3 -13279-2 0  9993
2 67326  43.0005 311.7585 0001882 264.9179 162.8367 16.04323825  2026
STARLINK-36501          
1 67327U 26002Y   26009.25001157 -.00914882  29221-3 -13381-2 0  9994
2 67327  43.0007 311.7613 0001941 267.6742 158.9483 16.04192657  1866
STARLINK-36489          
1 67328U 26002Z   26009.25001157 -.00906364  28818-3 -13039-2 0  9992
2 67328  43.0004 311.7553 0001789 263.9136 165.0528 16.04463876  2025
STARLINK-36496          
1 67329U 26002AA  26009.25001157 -.00903378  28719-3 -12819-2 0  9990
2 67329  43.0004 311.7500 0001833 264.2654 166.7600 16.04687762  1847
STARLINK-36483          
1 67330U 26002AB  26009.25001157 -.00914163  29439-3 -12755-2 0  9995
2 67330  43.0004 311.7423 0001916 265.8777 168.1254 16.04964421  2020
STARLINK-36494          
1 67331U 26002AC  26009.25001157 -.00905643  28816-3 -12932-2 0  9994
2 67331  43.0004 311.7524 0001740 263.4657 166.5819 16.04585915  2025
STARLINK-36492          
1 67332U 26002AD  26009.25001157 -.00905810  28923-3 -12704-2 0  9997
2 67332  43.0003 311.7443 0001784 263.5225 169.6361 16.04878948  2022
STARLINK-36427          
1 67333U 26002AE  26009.25001157 -.00472354  92178-4 -58301-3 0  9998
2 67333  43.0001 311.7135 0002042 265.7436 179.4501 16.06842058  1923
