CCSDS_OMM_VERS = 2.0
CREATION_DATE  = 
ORIGINATOR     = 

OBJECT_NAME    = STARLINK-36471
OBJECT_ID      = 2026-002V
CENTER_NAME    = EARTH
REF_FRAME      = TEME
TIME_SYSTEM    = UTC
MEAN_ELEMENT_THEORY = SGP/SGP4

EPOCH          = 2026-01-09T06:00:00.999648
MEAN_MOTION    = 16.04075400
ECCENTRICITY   = .00019972
INCLINATION    = 43.0007
RA_OF_ASC_NODE = 311.7640
ARG_OF_PERICENTER = 270.7850
MEAN_ANOMALY   = 154.7769

EPHEMERIS_TYPE = 0
CLASSIFICATION_TYPE = U
NORAD_CAT_ID   = 67324
ELEMENT_SET_NO = 999
REV_AT_EPOCH   = 186
BSTAR          = -.13481541E-2
MEAN_MOTION_DOT = -.915224E-2
MEAN_MOTION_DDOT = .29201505E-3

CCSDS_OMM_VERS = 2.0
CREATION_DATE  = 
ORIGINATOR     = 

OBJECT_NAME    = STARLINK-36473
OBJECT_ID      = 2026-002W
CENTER_NAME    = EARTH
REF_FRAME      = TEME
TIME_SYSTEM    = UTC
MEAN_ELEMENT_THEORY = SGP/SGP4

EPOCH          = 2026-01-09T06:00:00.999648
MEAN_MOTION    = 16.03953786
ECCENTRICITY   = .00019705
INCLINATION    = 43.0007
RA_OF_ASC_NODE = 311.7670
ARG_OF_PERICENTER = 267.9974
MEAN_ANOMALY   = 156.4853

EPHEMERIS_TYPE = 0
CLASSIFICATION_TYPE = U
NORAD_CAT_ID   = 67325
ELEMENT_SET_NO = 999
REV_AT_EPOCH   = 202
BSTAR          = -.13565318E-2
MEAN_MOTION_DOT = -.914154E-2
MEAN_MOTION_DDOT = .29099133E-3

CCSDS_OMM_VERS = 2.0
CREATION_DATE  = 
ORIGINATOR     = 

OBJECT_NAME    = STARLINK-36430
OBJECT_ID      = 2026-002X
CENTER_NAME    = EARTH
REF_FRAME      = TEME
TIME_SYSTEM    = UTC
MEAN_ELEMENT_THEORY = SGP/SGP4

EPOCH          = 2026-01-09T06:00:00.999648
MEAN_MOTION    = 16.04323825
ECCENTRICITY   = .00018827
INCLINATION    = 43.0005
RA_OF_ASC_NODE = 311.7585
ARG_OF_PERICENTER = 264.9179
MEAN_ANOMALY   = 162.8367

EPHEMERIS_TYPE = 0
CLASSIFICATION_TYPE = U
NORAD_CAT_ID   = 67326
ELEMENT_SET_NO = 999
REV_AT_EPOCH   = 202
BSTAR          = -.13279449E-2
MEAN_MOTION_DOT = -.915185E-2
MEAN_MOTION_DDOT = .29282441E-3

CCSDS_OMM_VERS = 2.0
CREATION_DATE  = 
ORIGINATOR     = 

OBJECT_NAME    = STARLINK-36501
OBJECT_ID      = 2026-002Y
CENTER_NAME    = EARTH
REF_FRAME      = TEME
TIME_SYSTEM    = UTC
MEAN_ELEMENT_THEORY = SGP/SGP4

EPOCH          = 2026-01-09T06:00:00.999648
MEAN_MOTION    = 16.04192657
ECCENTRICITY   = .00019416
INCLINATION    = 43.0007
RA_OF_ASC_NODE = 311.7613
ARG_OF_PERICENTER = 267.6742
MEAN_ANOMALY   = 158.9483

EPHEMERIS_TYPE = 0
CLASSIFICATION_TYPE = U
NORAD_CAT_ID   = 67327
ELEMENT_SET_NO = 999
REV_AT_EPOCH   = 186
BSTAR          = -.13381091E-2
MEAN_MOTION_DOT = -.914882E-2
MEAN_MOTION_DDOT = .29220865E-3

CCSDS_OMM_VERS = 2.0
CREATION_DATE  = 
ORIGINATOR     = 

OBJECT_NAME    = STARLINK-36489
OBJECT_ID      = 2026-002Z
CENTER_NAME    = EARTH
REF_FRAME      = TEME
TIME_SYSTEM    = UTC
MEAN_ELEMENT_THEORY = SGP/SGP4

EPOCH          = 2026-01-09T06:00:00.999648
MEAN_MOTION    = 16.04463876
ECCENTRICITY   = .00017899
INCLINATION    = 43.0004
RA_OF_ASC_NODE = 311.7553
ARG_OF_PERICENTER = 263.9136
MEAN_ANOMALY   = 165.0528

EPHEMERIS_TYPE = 0
CLASSIFICATION_TYPE = U
NORAD_CAT_ID   = 67328
ELEMENT_SET_NO = 999
REV_AT_EPOCH   = 202
BSTAR          = -.13038811E-2
MEAN_MOTION_DOT = -.906364E-2
MEAN_MOTION_DDOT = .28817578E-3

CCSDS_OMM_VERS = 2.0
CREATION_DATE  = 
ORIGINATOR     = 

OBJECT_NAME    = STARLINK-36496
OBJECT_ID      = 2026-002AA
CENTER_NAME    = EARTH
REF_FRAME      = TEME
TIME_SYSTEM    = UTC
MEAN_ELEMENT_THEORY = SGP/SGP4

EPOCH          = 2026-01-09T06:00:00.999648
MEAN_MOTION    = 16.04687762
ECCENTRICITY   = .00018334
INCLINATION    = 43.0004
RA_OF_ASC_NODE = 311.7500
ARG_OF_PERICENTER = 264.2654
MEAN_ANOMALY   = 166.7600

EPHEMERIS_TYPE = 0
CLASSIFICATION_TYPE = U
NORAD_CAT_ID   = 67329
ELEMENT_SET_NO = 999
REV_AT_EPOCH   = 184
BSTAR          = -.12818858E-2
MEAN_MOTION_DOT = -.903378E-2
MEAN_MOTION_DDOT = .28719084E-3

CCSDS_OMM_VERS = 2.0
CREATION_DATE  = 
ORIGINATOR     = 

OBJECT_NAME    = STARLINK-36483
OBJECT_ID      = 2026-002AB
CENTER_NAME    = EARTH
REF_FRAME      = TEME
TIME_SYSTEM    = UTC
MEAN_ELEMENT_THEORY = SGP/SGP4

EPOCH          = 2026-01-09T06:00:00.999648
MEAN_MOTION    = 16.04964421
ECCENTRICITY   = .00019168
INCLINATION    = 43.0004
RA_OF_ASC_NODE = 311.7423
ARG_OF_PERICENTER = 265.8777
MEAN_ANOMALY   = 168.1254

EPHEMERIS_TYPE = 0
CLASSIFICATION_TYPE = U
NORAD_CAT_ID   = 67330
ELEMENT_SET_NO = 999
REV_AT_EPOCH   = 202
BSTAR          = -.12755081E-2
MEAN_MOTION_DOT = -.914163E-2
MEAN_MOTION_DDOT = .29439287E-3

CCSDS_OMM_VERS = 2.0
CREATION_DATE  = 
ORIGINATOR     = 

OBJECT_NAME    = STARLINK-36494
OBJECT_ID      = 2026-002AC
CENTER_NAME    = EARTH
REF_FRAME      = TEME
TIME_SYSTEM    = UTC
MEAN_ELEMENT_THEORY = SGP/SGP4

EPOCH          = 2026-01-09T06:00:00.999648
MEAN_MOTION    = 16.04585915
ECCENTRICITY   = .00017404
INCLINATION    = 43.0004
RA_OF_ASC_NODE = 311.7524
ARG_OF_PERICENTER = 263.4657
MEAN_ANOMALY   = 166.5819

EPHEMERIS_TYPE = 0
CLASSIFICATION_TYPE = U
NORAD_CAT_ID   = 67331
ELEMENT_SET_NO = 999
REV_AT_EPOCH   = 202
BSTAR          = -.12931831E-2
MEAN_MOTION_DOT = -.905643E-2
MEAN_MOTION_DDOT = .28816303E-3

CCSDS_OMM_VERS = 2.0
CREATION_DATE  = 
ORIGINATOR     = 

OBJECT_NAME    = STARLINK-36492
OBJECT_ID      = 2026-002AD
CENTER_NAME    = EARTH
REF_FRAME      = TEME
TIME_SYSTEM    = UTC
MEAN_ELEMENT_THEORY = SGP/SGP4

EPOCH          = 2026-01-09T06:00:00.999648
MEAN_MOTION    = 16.04878948
ECCENTRICITY   = .00017847
INCLINATION    = 43.0003
RA_OF_ASC_NODE = 311.7443
ARG_OF_PERICENTER = 263.5225
MEAN_ANOMALY   = 169.6361

EPHEMERIS_TYPE = 0
CLASSIFICATION_TYPE = U
NORAD_CAT_ID   = 67332
ELEMENT_SET_NO = 999
REV_AT_EPOCH   = 202
BSTAR          = -.12704245E-2
MEAN_MOTION_DOT = -.90581E-2
MEAN_MOTION_DDOT = .28923492E-3

CCSDS_OMM_VERS = 2.0
CREATION_DATE  = 
ORIGINATOR     = 

OBJECT_NAME    = STARLINK-36427
OBJECT_ID      = 2026-002AE
CENTER_NAME    = EARTH
REF_FRAME      = TEME
TIME_SYSTEM    = UTC
MEAN_ELEMENT_THEORY = SGP/SGP4

EPOCH          = 2026-01-09T06:00:00.999648
MEAN_MOTION    = 16.06842058
ECCENTRICITY   = .00020422
INCLINATION    = 43.0001
RA_OF_ASC_NODE = 311.7135
ARG_OF_PERICENTER = 265.7436
MEAN_ANOMALY   = 179.4501

EPHEMERIS_TYPE = 0
CLASSIFICATION_TYPE = U
NORAD_CAT_ID   = 67333
ELEMENT_SET_NO = 999
REV_AT_EPOCH   = 192
BSTAR          = -.58300988E-3
MEAN_MOTION_DOT = -.472354E-2
MEAN_MOTION_DDOT = .92177952E-4

